GLOBALSTAR M001 [-]     
1 25162U 98008A   24042.73507914 -.00000020  00000+0  58656-3 0  9994
2 25162  52.0058 323.5953 0001414 321.0381  57.1998 12.38176768182836
GLOBALSTAR M004 [-]     
1 25163U 98008B   24042.92817778 -.00000046  00000+0  31838-3 0  9999
2 25163  51.9991 112.8149 0002449 272.2502 136.2552 12.63350259199591
GLOBALSTAR M002 [-]     
1 25164U 98008C   24042.17313263 -.00000050  00000+0  51647-3 0  9992
2 25164  52.0036  33.8347 0001232 324.1994  35.8743 11.61497522126898
GLOBALSTAR M003 [-]     
1 25165U 98008D   24042.55008021  .00000036  00000+0  13399-2 0  9992
2 25165  51.9811  90.2083 0007782  27.2875 120.9122 12.11976722173605
GLOBALSTAR M014 [-]     
1 25306U 98023A   24042.95498420 -.00000057  00000+0  37584-3 0  9993
2 25306  51.9868 325.4291 0000695 133.8999 306.5807 11.65464373133896
GLOBALSTAR M006 [-]     
1 25307U 98023B   24042.19544166 -.00000080  00000+0 -91018-4 0  9999
2 25307  51.9975   1.4327 0003715 309.8736 151.9017 11.58156228159822
GLOBALSTAR M015 [-]     
1 25308U 98023C   24042.38863723 -.00000122  00000+0 -11062-2 0  9990
2 25308  51.9823  76.8830 0012264 278.6329 179.7945 11.48856620137556
GLOBALSTAR M008 [-]     
1 25309U 98023D   24042.58279170 -.00000110  00000+0 -11212-3 0  9995
2 25309  51.9949 183.2982 0002372 195.2178 246.4584 12.36036163177052
